[Satellite]
VERSION=1.1
NAME=ATLANTIC BIRD 4A
NICKNAME=ATLANTIC BIRD 4A
TLE1=1 33750U 09008B   17186.06413846  .00000151  00000-0  00000-0 0  9997
TLE2=2 33750   0.0296 335.7439 0003558 169.7845 193.8802  1.00271796 30672
